[{"spaceTrack":{"CCSDS_OMM_VERS":"2.0","COMMENT":"GENERATED VIA SPACE-TRACK.ORG API","CREATION_DATE":"2021-10-25T22:26:12","ORIGINATOR":"18 SPCS","OBJECT_NAME":"STARLINK-2557","OBJECT_ID":"2021-036Z","CENTER_NAME":"EARTH","REF_FRAME":"TEME","TIME_SYSTEM":"UTC","MEAN_ELEMENT_THEORY":"SGP4","EPOCH":"2021-10-25T13:33:07.923456","MEAN_MOTION":15.06407554,"ECCENTRICITY":0.0001144,"INCLINATION":53.0588,"RA_OF_ASC_NODE":46.8918,"ARG_OF_PERICENTER":110.9131,"MEAN_ANOMALY":249.1981,"EPHEMERIS_TYPE":0,"CLASSIFICATION_TYPE":"U","NORAD_CAT_ID":48299,"ELEMENT_SET_NO":999,"REV_AT_EPOCH":2832,"BSTAR":0.00002599,"MEAN_MOTION_DOT":0.00000106,"MEAN_MOTION_DDOT":0,"SEMIMAJOR_AXIS":6925.325,"PERIOD":95.592,"APOAPSIS":547.983,"PERIAPSIS":546.398,"OBJECT_TYPE":"PAYLOAD","RCS_SIZE":"LARGE","COUNTRY_CODE":"US","LAUNCH_DATE":"2021-04-29","SITE":"AFETR","DECAY_DATE":null,"DECAYED":0,"FILE":3183561,"GP_ID":188147327,"TLE_LINE0":"0 STARLINK-2557","TLE_LINE1":"1 48299U 21036Z   21298.56467504  .00000106  00000-0  25990-4 0  9999","TLE_LINE2":"2 48299  53.0588  46.8918 0001144 110.9131 249.1981 15.06407554 28321"},"height_km":550.0355005006204,"latitude":40.141510770179714,"launch":"605b4b6aaa5433645e37d03f","longitude":-86.12886030678675,"velocity_kms":7.592373924997861,"version":"v1.0","id":"609444fd15400000066a3f30"},{"spaceTrack":{"CCSDS_OMM_VERS":"2.0","COMMENT":"GENERATED VIA SPACE-TRACK.ORG API","CREATION_DATE":"2021-10-25T14:26:11","ORIGINATOR":"18 SPCS","OBJECT_NAME":"STARLINK-2523","OBJECT_ID":"2021-036AG","CENTER_NAME":"EARTH","REF_FRAME":"TEME","TIME_SYSTEM":"UTC","MEAN_ELEMENT_THEORY":"SGP4","EPOCH":"2021-10-25T08:02:44.368800","MEAN_MOTION":15.06399789,"ECCENTRICITY":0.0001329,"INCLINATION":53.0571,"RA_OF_ASC_NODE":57.9298,"ARG_OF_PERICENTER":96.0101,"MEAN_ANOMALY":264.1039,"EPHEMERIS_TYPE":0,"CLASSIFICATION_TYPE":"U","NORAD_CAT_ID":48306,"ELEMENT_SET_NO":999,"REV_AT_EPOCH":2815,"BSTAR":-0.000024203,"MEAN_MOTION_DOT":-0.00000642,"MEAN_MOTION_DDOT":0,"SEMIMAJOR_AXIS":6925.349,"PERIOD":95.592,"APOAPSIS":548.135,"PERIAPSIS":546.294,"OBJECT_TYPE":"PAYLOAD","RCS_SIZE":"LARGE","COUNTRY_CODE":"US","LAUNCH_DATE":"2021-04-29","SITE":"AFETR","DECAY_DATE":null,"DECAYED":0,"FILE":3183206,"GP_ID":188116692,"TLE_LINE0":"0 STARLINK-2523","TLE_LINE1":"1 48306U 21036AG  21298.33523575 -.00000642  00000-0 -24203-4 0  9997","TLE_LINE2":"2 48306  53.0571  57.9298 0001329  96.0101 264.1039 15.06399789 28154"},"height_km":564.6626326083897,"latitude":-48.28036147267728,"launch":"605b4b6aaa5433645e37d03f","longitude":85.96074756460777,"velocity_kms":7.57820053997944,"version":"v1.0","id":"609444fd15400000066a3f2d"},{"spaceTrack":{"CCSDS_OMM_VERS":"2.0","COMMENT":"GENERATED VIA SPACE-TRACK.ORG API","CREATION_DATE":"2021-10-26T14:16:11","ORIGINATOR":"18 SPCS","OBJECT_NAME":"STARLINK-2558","OBJECT_ID":"2021-036G","CENTER_NAME":"EARTH","REF_FRAME":"TEME","TIME_SYSTEM":"UTC","MEAN_ELEMENT_THEORY":"SGP4","EPOCH":"2021-10-25T19:49:59.949120","MEAN_MOTION":15.06405162,"ECCENTRICITY":0.0001157,"INCLINATION":53.0597,"RA_OF_ASC_NODE":45.7208,"ARG_OF_PERICENTER":97.3353,"MEAN_ANOMALY":262.7768,"EPHEMERIS_TYPE":0,"CLASSIFICATION_TYPE":"U","NORAD_CAT_ID":48282,"ELEMENT_SET_NO":999,"REV_AT_EPOCH":2836,"BSTAR":0.00009603,"MEAN_MOTION_DOT":0.00001149,"MEAN_MOTION_DDOT":0,"SEMIMAJOR_AXIS":6925.333,"PERIOD":95.592,"APOAPSIS":547.999,"PERIAPSIS":546.396,"OBJECT_TYPE":"PAYLOAD","RCS_SIZE":"LARGE","COUNTRY_CODE":"US","LAUNCH_DATE":"2021-04-29","SITE":"AFETR","DECAY_DATE":null,"DECAYED":0,"FILE":3184477,"GP_ID":188166688,"TLE_LINE0":"0 STARLINK-2558","TLE_LINE1":"1 48282U 21036G   21298.82638830  .00001149  00000-0  96030-4 0  9993","TLE_LINE2":"2 48282  53.0597  45.7208 0001157  97.3353 262.7768 15.06405162 28362"},"height_km":547.7885411322886,"latitude":26.349018185553803,"launch":"605b4b6aaa5433645e37d03f","longitude":-68.76535946808863,"velocity_kms":7.592004813054627,"version":"v1.0","id":"609444fd15400000066a3f2e"},{"spaceTrack":{"CCSDS_OMM_VERS":"2.0","COMMENT":"GENERATED VIA SPACE-TRACK.ORG API","CREATION_DATE":"2021-10-26T06:26:11","ORIGINATOR":"18 SPCS","OBJECT_NAME":"STARLINK-2540","OBJECT_ID":"2021-036Q","CENTER_NAME":"EARTH","REF_FRAME":"TEME","TIME_SYSTEM":"UTC","MEAN_ELEMENT_THEORY":"SGP4","EPOCH":"2021-10-25T15:56:27.775968","MEAN_MOTION":15.0639849,"ECCENTRICITY":0.0001098,"INCLINATION":53.0563,"RA_OF_ASC_NODE":46.4647,"ARG_OF_PERICENTER":97.9217,"MEAN_ANOMALY":262.1897,"EPHEMERIS_TYPE":0,"CLASSIFICATION_TYPE":"U","NORAD_CAT_ID":48290,"ELEMENT_SET_NO":999,"REV_AT_EPOCH":2833,"BSTAR":0.000047488,"MEAN_MOTION_DOT":0.00000426,"MEAN_MOTION_DDOT":0,"SEMIMAJOR_AXIS":6925.353,"PERIOD":95.592,"APOAPSIS":547.979,"PERIAPSIS":546.458,"OBJECT_TYPE":"PAYLOAD","RCS_SIZE":"LARGE","COUNTRY_CODE":"US","LAUNCH_DATE":"2021-04-29","SITE":"AFETR","DECAY_DATE":null,"DECAYED":0,"FILE":3183884,"GP_ID":188154762,"TLE_LINE0":"0 STARLINK-2540","TLE_LINE1":"1 48290U 21036Q   21298.66421037  .00000426  00000-0  47488-4 0  9993","TLE_LINE2":"2 48290  53.0563  46.4647 0001098  97.9217 262.1897 15.06398490 28337"},"height_km":561.1661785293163,"latitude":-40.287865514568516,"launch":"605b4b6aaa5433645e37d03f","longitude":93.64362781928024,"velocity_kms":7.580224951414505,"version":"v1.0","id":"609444fd15400000066a3f2b"},{"spaceTrack":{"CCSDS_OMM_VERS":"2.0","COMMENT":"GENERATED VIA SPACE-TRACK.ORG API","CREATION_DATE":"2021-10-25T22:26:12","ORIGINATOR":"18 SPCS","OBJECT_NAME":"STARLINK-2530","OBJECT_ID":"2021-036AD","CENTER_NAME":"EARTH","REF_FRAME":"TEME","TIME_SYSTEM":"UTC","MEAN_ELEMENT_THEORY":"SGP4","EPOCH":"2021-10-25T13:05:17.358720","MEAN_MOTION":15.06399698,"ECCENTRICITY":0.0001457,"INCLINATION":53.0553,"RA_OF_ASC_NODE":56.9773,"ARG_OF_PERICENTER":93.1236,"MEAN_ANOMALY":266.992,"EPHEMERIS_TYPE":0,"CLASSIFICATION_TYPE":"U","NORAD_CAT_ID":48303,"ELEMENT_SET_NO":999,"REV_AT_EPOCH":2818,"BSTAR":0.00011276,"MEAN_MOTION_DOT":0.00001398,"MEAN_MOTION_DDOT":0,"SEMIMAJOR_AXIS":6925.349,"PERIOD":95.592,"APOAPSIS":548.224,"PERIAPSIS":546.205,"OBJECT_TYPE":"PAYLOAD","RCS_SIZE":"LARGE","COUNTRY_CODE":"US","LAUNCH_DATE":"2021-04-29","SITE":"AFETR","DECAY_DATE":null,"DECAYED":0,"FILE":3183553,"GP_ID":188147820,"TLE_LINE0":"0 STARLINK-2530","TLE_LINE1":"1 48303U 21036AD  21298.54533980  .00001398  00000-0  11276-3 0  9990","TLE_LINE2":"2 48303  53.0553  56.9773 0001457  93.1236 266.9920 15.06399698 28188"},"height_km":560.5764250199536,"latitude":-38.82182514766126,"launch":"605b4b6aaa5433645e37d03f","longitude":-0.031769907397081285,"velocity_kms":7.5805391546180125,"version":"v1.0","id":"609444fd15400000066a3f33"},{"spaceTrack":{"CCSDS_OMM_VERS":"2.0","COMMENT":"GENERATED VIA SPACE-TRACK.ORG API","CREATION_DATE":"2021-10-25T22:16:11","ORIGINATOR":"18 SPCS","OBJECT_NAME":"STARLINK-2520","OBJECT_ID":"2021-036F","CENTER_NAME":"EARTH","REF_FRAME":"TEME","TIME_SYSTEM":"UTC","MEAN_ELEMENT_THEORY":"SGP4","EPOCH":"2021-10-25T14:29:32.570016","MEAN_MOTION":15.06403095,"ECCENTRICITY":0.0001145,"INCLINATION":53.0571,"RA_OF_ASC_NODE":41.7141,"ARG_OF_PERICENTER":93.9533,"MEAN_ANOMALY":266.1587,"EPHEMERIS_TYPE":0,"CLASSIFICATION_TYPE":"U","NORAD_CAT_ID":48281,"ELEMENT_SET_NO":999,"REV_AT_EPOCH":2839,"BSTAR":0.000055997,"MEAN_MOTION_DOT":0.00000553,"MEAN_MOTION_DDOT":0,"SEMIMAJOR_AXIS":6925.339,"PERIOD":95.592,"APOAPSIS":547.997,"PERIAPSIS":546.411,"OBJECT_TYPE":"PAYLOAD","RCS_SIZE":"LARGE","COUNTRY_CODE":"US","LAUNCH_DATE":"2021-04-29","SITE":"AFETR","DECAY_DATE":null,"DECAYED":0,"FILE":3183520,"GP_ID":188146232,"TLE_LINE0":"0 STARLINK-2520","TLE_LINE1":"1 48281U 21036F   21298.60384919  .00000553  00000-0  55997-4 0  9999","TLE_LINE2":"2 48281  53.0571  41.7141 0001145  93.9533 266.1587 15.06403095 28397"},"height_km":566.4137616173648,"latitude":-53.04471441282668,"launch":"605b4b6aaa5433645e37d03f","longitude":44.207866626132756,"velocity_kms":7.577329840575093,"version":"v1.0","id":"609444fd15400000066a3f2a"},{"spaceTrack":{"CCSDS_OMM_VERS":"2.0","COMMENT":"GENERATED VIA SPACE-TRACK.ORG API","CREATION_DATE":"2021-10-25T22:26:12","ORIGINATOR":"18 SPCS","OBJECT_NAME":"STARLINK-2544","OBJECT_ID":"2021-036X","CENTER_NAME":"EARTH","REF_FRAME":"TEME","TIME_SYSTEM":"UTC","MEAN_ELEMENT_THEORY":"SGP4","EPOCH":"2021-10-25T13:43:45.301440","MEAN_MOTION":15.06404637,"ECCENTRICITY":0.0001159,"INCLINATION":53.0579,"RA_OF_ASC_NODE":46.8763,"ARG_OF_PERICENTER":88.2486,"MEAN_ANOMALY":271.8635,"EPHEMERIS_TYPE":0,"CLASSIFICATION_TYPE":"U","NORAD_CAT_ID":48297,"ELEMENT_SET_NO":999,"REV_AT_EPOCH":2832,"BSTAR":0.000015831,"MEAN_MOTION_DOT":-4.6e-7,"MEAN_MOTION_DDOT":0,"SEMIMAJOR_AXIS":6925.334,"PERIOD":95.592,"APOAPSIS":548.002,"PERIAPSIS":546.397,"OBJECT_TYPE":"PAYLOAD","RCS_SIZE":"LARGE","COUNTRY_CODE":"US","LAUNCH_DATE":"2021-04-29","SITE":"AFETR","DECAY_DATE":null,"DECAYED":0,"FILE":3183526,"GP_ID":188146889,"TLE_LINE0":"0 STARLINK-2544","TLE_LINE1":"1 48297U 21036X   21298.57205210 -.00000046  00000-0  15831-4 0  9999","TLE_LINE2":"2 48297  53.0579  46.8763 0001159  88.2486 271.8635 15.06404637 28320"},"height_km":552.9286596737047,"latitude":53.05873476652665,"launch":"605b4b6aaa5433645e37d03f","longitude":-142.99561330152045,"velocity_kms":7.592105200995746,"version":"v1.0","id":"609444fd15400000066a3f31"}]